STARLINK-35816          
1 66499U 25263Q   25344.58336806 -.02103765  00000+0 -43094-1 0  9995
2 66499  43.0006 137.7153 0001273 271.4330 226.4850 15.48767862  5285
STARLINK-35894          
1 66500U 25263R   25344.58336806 -.01853384  00000+0 -40268-1 0  9996
2 66500  43.0004 137.8446 0001553 279.8028 165.7212 15.46666825  5281
STARLINK-35897          
1 66501U 25263S   25344.58336806 -.01115987  00000+0 -20794-1 0  9999
2 66501  43.0005 137.7074 0001414 260.9483 240.1616 15.50941487  5293
STARLINK-35922          
1 66502U 25263T   25344.58336806 -.00136280  00000+0 -23533-2 0  9993
2 66502  43.0006 137.6925 0001489 270.7717 236.1448 15.50631348  5290
STARLINK-35917          
1 66503U 25263U   25344.58336806 -.00135875  00000+0 -23462-2 0  9994
2 66503  43.0007 137.6833 0001534 268.9427 241.8080 15.50631725  5292
STARLINK-35916          
1 66504U 25263V   25343.94417130  .00047394  00000+0  11341-2 0  9993
2 66504  43.0001 142.7409 0001537 268.6806  91.3875 15.40719058  5110
STARLINK-34766          
1 66505U 25263W   25344.58336806 -.00145299  00000+0 -25119-2 0  9998
2 66505  43.0007 137.7024 0001630 270.0578 233.0232 15.50635943  5293
STARLINK-34765          
1 66506U 25263X   25344.58336806 -.00136220  00000+0 -23525-2 0  9992
2 66506  43.0007 137.6980 0001541 266.9657 238.0355 15.50629049  5298
STARLINK-34767          
1 66507U 25263Y   25344.58336806 -.00287866  00000+0 -50641-2 0  9995
2 66507  43.0003 137.6864 0001302 270.9511 237.8679 15.50686401  5296
STARLINK-35608          
1 66508U 25263Z   25344.58336806 -.00130271  00000+0 -22479-2 0  9991
2 66508  43.0007 137.6737 0001512 268.3256 246.2609 15.50626967  5298
STARLINK-35598          
1 66509U 25263AA  25344.58336806 -.00122861  00000+0 -21179-2 0  9994
2 66509  43.0006 137.6523 0001393 267.3005 254.9527 15.50625572  5295
STARLINK-35600          
1 66510U 25263AB  25344.58336806 -.00127042  00000+0 -21912-2 0  9997
2 66510  43.0006 137.6673 0001501 264.6623 251.8413 15.50627351  5297
