CCSDS_OMM_VERS = 2.0
CREATION_DATE  = 
ORIGINATOR     = 

OBJECT_NAME    = STARLINK-35816
OBJECT_ID      = 2025-263Q
CENTER_NAME    = EARTH
REF_FRAME      = TEME
TIME_SYSTEM    = UTC
MEAN_ELEMENT_THEORY = SGP/SGP4

EPOCH          = 2025-12-10T14:00:03.000384
MEAN_MOTION    = 15.48767862
ECCENTRICITY   = .00012732
INCLINATION    = 43.0006
RA_OF_ASC_NODE = 137.7153
ARG_OF_PERICENTER = 271.4330
MEAN_ANOMALY   = 226.4850

EPHEMERIS_TYPE = 0
CLASSIFICATION_TYPE = U
NORAD_CAT_ID   = 66499
ELEMENT_SET_NO = 999
REV_AT_EPOCH   = 528
BSTAR          = -.43093845E-1
MEAN_MOTION_DOT = -.2103765E-1
MEAN_MOTION_DDOT = 0

CCSDS_OMM_VERS = 2.0
CREATION_DATE  = 
ORIGINATOR     = 

OBJECT_NAME    = STARLINK-35894
OBJECT_ID      = 2025-263R
CENTER_NAME    = EARTH
REF_FRAME      = TEME
TIME_SYSTEM    = UTC
MEAN_ELEMENT_THEORY = SGP/SGP4

EPOCH          = 2025-12-10T14:00:03.000384
MEAN_MOTION    = 15.46666825
ECCENTRICITY   = .00015536
INCLINATION    = 43.0004
RA_OF_ASC_NODE = 137.8446
ARG_OF_PERICENTER = 279.8028
MEAN_ANOMALY   = 165.7212

EPHEMERIS_TYPE = 0
CLASSIFICATION_TYPE = U
NORAD_CAT_ID   = 66500
ELEMENT_SET_NO = 999
REV_AT_EPOCH   = 528
BSTAR          = -.40267692E-1
MEAN_MOTION_DOT = -.1853384E-1
MEAN_MOTION_DDOT = 0

CCSDS_OMM_VERS = 2.0
CREATION_DATE  = 
ORIGINATOR     = 

OBJECT_NAME    = STARLINK-35897
OBJECT_ID      = 2025-263S
CENTER_NAME    = EARTH
REF_FRAME      = TEME
TIME_SYSTEM    = UTC
MEAN_ELEMENT_THEORY = SGP/SGP4

EPOCH          = 2025-12-10T14:00:03.000384
MEAN_MOTION    = 15.50941487
ECCENTRICITY   = .00014145
INCLINATION    = 43.0005
RA_OF_ASC_NODE = 137.7074
ARG_OF_PERICENTER = 260.9483
MEAN_ANOMALY   = 240.1616

EPHEMERIS_TYPE = 0
CLASSIFICATION_TYPE = U
NORAD_CAT_ID   = 66501
ELEMENT_SET_NO = 999
REV_AT_EPOCH   = 529
BSTAR          = -.20794197E-1
MEAN_MOTION_DOT = -.1115987E-1
MEAN_MOTION_DDOT = 0

CCSDS_OMM_VERS = 2.0
CREATION_DATE  = 
ORIGINATOR     = 

OBJECT_NAME    = STARLINK-35922
OBJECT_ID      = 2025-263T
CENTER_NAME    = EARTH
REF_FRAME      = TEME
TIME_SYSTEM    = UTC
MEAN_ELEMENT_THEORY = SGP/SGP4

EPOCH          = 2025-12-10T14:00:03.000384
MEAN_MOTION    = 15.50631348
ECCENTRICITY   = .00014898
INCLINATION    = 43.0006
RA_OF_ASC_NODE = 137.6925
ARG_OF_PERICENTER = 270.7717
MEAN_ANOMALY   = 236.1448

EPHEMERIS_TYPE = 0
CLASSIFICATION_TYPE = U
NORAD_CAT_ID   = 66502
ELEMENT_SET_NO = 999
REV_AT_EPOCH   = 529
BSTAR          = -.23533407E-2
MEAN_MOTION_DOT = -.13628E-2
MEAN_MOTION_DDOT = 0

CCSDS_OMM_VERS = 2.0
CREATION_DATE  = 
ORIGINATOR     = 

OBJECT_NAME    = STARLINK-35917
OBJECT_ID      = 2025-263U
CENTER_NAME    = EARTH
REF_FRAME      = TEME
TIME_SYSTEM    = UTC
MEAN_ELEMENT_THEORY = SGP/SGP4

EPOCH          = 2025-12-10T14:00:03.000384
MEAN_MOTION    = 15.50631725
ECCENTRICITY   = .00015344
INCLINATION    = 43.0007
RA_OF_ASC_NODE = 137.6833
ARG_OF_PERICENTER = 268.9427
MEAN_ANOMALY   = 241.8080

EPHEMERIS_TYPE = 0
CLASSIFICATION_TYPE = U
NORAD_CAT_ID   = 66503
ELEMENT_SET_NO = 999
REV_AT_EPOCH   = 529
BSTAR          = -.2346175E-2
MEAN_MOTION_DOT = -.135875E-2
MEAN_MOTION_DDOT = 0

CCSDS_OMM_VERS = 2.0
CREATION_DATE  = 
ORIGINATOR     = 

OBJECT_NAME    = STARLINK-35916
OBJECT_ID      = 2025-263V
CENTER_NAME    = EARTH
REF_FRAME      = TEME
TIME_SYSTEM    = UTC
MEAN_ELEMENT_THEORY = SGP/SGP4

EPOCH          = 2025-12-09T22:39:36.400320
MEAN_MOTION    = 15.40719058
ECCENTRICITY   = .00015372
INCLINATION    = 43.0001
RA_OF_ASC_NODE = 142.7409
ARG_OF_PERICENTER = 268.6806
MEAN_ANOMALY   = 91.3875

EPHEMERIS_TYPE = 0
CLASSIFICATION_TYPE = U
NORAD_CAT_ID   = 66504
ELEMENT_SET_NO = 999
REV_AT_EPOCH   = 511
BSTAR          = .11340685E-2
MEAN_MOTION_DOT = .47394E-3
MEAN_MOTION_DDOT = 0

CCSDS_OMM_VERS = 2.0
CREATION_DATE  = 
ORIGINATOR     = 

OBJECT_NAME    = STARLINK-34766
OBJECT_ID      = 2025-263W
CENTER_NAME    = EARTH
REF_FRAME      = TEME
TIME_SYSTEM    = UTC
MEAN_ELEMENT_THEORY = SGP/SGP4

EPOCH          = 2025-12-10T14:00:03.000384
MEAN_MOTION    = 15.50635943
ECCENTRICITY   = .00016304
INCLINATION    = 43.0007
RA_OF_ASC_NODE = 137.7024
ARG_OF_PERICENTER = 270.0578
MEAN_ANOMALY   = 233.0232

EPHEMERIS_TYPE = 0
CLASSIFICATION_TYPE = U
NORAD_CAT_ID   = 66505
ELEMENT_SET_NO = 999
REV_AT_EPOCH   = 529
BSTAR          = -.2511904E-2
MEAN_MOTION_DOT = -.145299E-2
MEAN_MOTION_DDOT = 0

CCSDS_OMM_VERS = 2.0
CREATION_DATE  = 
ORIGINATOR     = 

OBJECT_NAME    = STARLINK-34765
OBJECT_ID      = 2025-263X
CENTER_NAME    = EARTH
REF_FRAME      = TEME
TIME_SYSTEM    = UTC
MEAN_ELEMENT_THEORY = SGP/SGP4

EPOCH          = 2025-12-10T14:00:03.000384
MEAN_MOTION    = 15.50629049
ECCENTRICITY   = .0001541
INCLINATION    = 43.0007
RA_OF_ASC_NODE = 137.6980
ARG_OF_PERICENTER = 266.9657
MEAN_ANOMALY   = 238.0355

EPHEMERIS_TYPE = 0
CLASSIFICATION_TYPE = U
NORAD_CAT_ID   = 66506
ELEMENT_SET_NO = 999
REV_AT_EPOCH   = 529
BSTAR          = -.23524682E-2
MEAN_MOTION_DOT = -.13622E-2
MEAN_MOTION_DDOT = 0

CCSDS_OMM_VERS = 2.0
CREATION_DATE  = 
ORIGINATOR     = 

OBJECT_NAME    = STARLINK-34767
OBJECT_ID      = 2025-263Y
CENTER_NAME    = EARTH
REF_FRAME      = TEME
TIME_SYSTEM    = UTC
MEAN_ELEMENT_THEORY = SGP/SGP4

EPOCH          = 2025-12-10T14:00:03.000384
MEAN_MOTION    = 15.50686401
ECCENTRICITY   = .00013026
INCLINATION    = 43.0003
RA_OF_ASC_NODE = 137.6864
ARG_OF_PERICENTER = 270.9511
MEAN_ANOMALY   = 237.8679

EPHEMERIS_TYPE = 0
CLASSIFICATION_TYPE = U
NORAD_CAT_ID   = 66507
ELEMENT_SET_NO = 999
REV_AT_EPOCH   = 529
BSTAR          = -.50641033E-2
MEAN_MOTION_DOT = -.287866E-2
MEAN_MOTION_DDOT = 0

CCSDS_OMM_VERS = 2.0
CREATION_DATE  = 
ORIGINATOR     = 

OBJECT_NAME    = STARLINK-35608
OBJECT_ID      = 2025-263Z
CENTER_NAME    = EARTH
REF_FRAME      = TEME
TIME_SYSTEM    = UTC
MEAN_ELEMENT_THEORY = SGP/SGP4

EPOCH          = 2025-12-10T14:00:03.000384
MEAN_MOTION    = 15.50626967
ECCENTRICITY   = .00015122
INCLINATION    = 43.0007
RA_OF_ASC_NODE = 137.6737
ARG_OF_PERICENTER = 268.3256
MEAN_ANOMALY   = 246.2609

EPHEMERIS_TYPE = 0
CLASSIFICATION_TYPE = U
NORAD_CAT_ID   = 66508
ELEMENT_SET_NO = 999
REV_AT_EPOCH   = 529
BSTAR          = -.224795E-2
MEAN_MOTION_DOT = -.130271E-2
MEAN_MOTION_DDOT = 0

CCSDS_OMM_VERS = 2.0
CREATION_DATE  = 
ORIGINATOR     = 

OBJECT_NAME    = STARLINK-35598
OBJECT_ID      = 2025-263AA
CENTER_NAME    = EARTH
REF_FRAME      = TEME
TIME_SYSTEM    = UTC
MEAN_ELEMENT_THEORY = SGP/SGP4

EPOCH          = 2025-12-10T14:00:03.000384
MEAN_MOTION    = 15.50625572
ECCENTRICITY   = .00013933
INCLINATION    = 43.0006
RA_OF_ASC_NODE = 137.6523
ARG_OF_PERICENTER = 267.3005
MEAN_ANOMALY   = 254.9527

EPHEMERIS_TYPE = 0
CLASSIFICATION_TYPE = U
NORAD_CAT_ID   = 66509
ELEMENT_SET_NO = 999
REV_AT_EPOCH   = 529
BSTAR          = -.21178885E-2
MEAN_MOTION_DOT = -.122861E-2
MEAN_MOTION_DDOT = 0

CCSDS_OMM_VERS = 2.0
CREATION_DATE  = 
ORIGINATOR     = 

OBJECT_NAME    = STARLINK-35600
OBJECT_ID      = 2025-263AB
CENTER_NAME    = EARTH
REF_FRAME      = TEME
TIME_SYSTEM    = UTC
MEAN_ELEMENT_THEORY = SGP/SGP4

EPOCH          = 2025-12-10T14:00:03.000384
MEAN_MOTION    = 15.50627351
ECCENTRICITY   = .00015016
INCLINATION    = 43.0006
RA_OF_ASC_NODE = 137.6673
ARG_OF_PERICENTER = 264.6623
MEAN_ANOMALY   = 251.8413

EPHEMERIS_TYPE = 0
CLASSIFICATION_TYPE = U
NORAD_CAT_ID   = 66510
ELEMENT_SET_NO = 999
REV_AT_EPOCH   = 529
BSTAR          = -.21911639E-2
MEAN_MOTION_DOT = -.127042E-2
MEAN_MOTION_DDOT = 0

